{
  "type": "FeatureCollection",
  "features": [
    {
      "type": "Feature",
      "properties": {
        "norad_id": 37320,
        "name": "COSMOS 2251 DEB",
        "group": "cosmos-2251-debris",
        "lat": 20.77473989341064,
        "lon": 34.61581699524353,
        "alt_km": 661.3007933731305,
        "timestamp": "2025-12-11T08:58:27.523066+00:00",
        "meta_object_name": "COSMOS 2251 DEB",
        "meta_object_id": "1993-036BKL",
        "meta_epoch": "2025-12-10T22:30:57.491424",
        "meta_mean_motion": 14.7874326,
        "meta_eccentricity": 0.0046934,
        "meta_inclination": 74.0455,
        "meta_ra_of_asc_node": 221.702,
        "meta_arg_of_pericenter": 309.0667,
        "meta_mean_anomaly": 50.6336,
        "meta_ephemeris_type": 0,
        "meta_classification_type": "U",
        "meta_norad_cat_id": 37320,
        "meta_element_set_no": 999,
        "meta_rev_at_epoch": 66120,
        "meta_bstar": 0.0013389,
        "meta_mean_motion_dot": 9.996e-05,
        "meta_mean_motion_ddot": 0,
        "tle_line1": "1 37320U 93036BKL 25344.93816541  .00009996  00000+0  13389-2 0  9999",
        "tle_line2": "2 37320  74.0455 221.7020 0046934 309.0667  50.6336 14.78743260661203"
      },
      "geometry": {
        "type": "Point",
        "coordinates": [
          34.61581699524353,
          20.77473989341064
        ]
      }
    },
    {
      "type": "Feature",
      "properties": {
        "norad_id": 37326,
        "name": "COSMOS 2251 DEB",
        "group": "cosmos-2251-debris",
        "lat": 73.98152994606832,
        "lon": 63.439472082565565,
        "alt_km": 643.8189919931492,
        "timestamp": "2025-12-11T08:58:27.523077+00:00",
        "meta_object_name": "COSMOS 2251 DEB",
        "meta_object_id": "1993-036BKS",
        "meta_epoch": "2025-12-10T07:55:46.181568",
        "meta_mean_motion": 14.61555954,
        "meta_eccentricity": 0.00548149,
        "meta_inclination": 74.0262,
        "meta_ra_of_asc_node": 339.3048,
        "meta_arg_of_pericenter": 109.0704,
        "meta_mean_anomaly": 251.641,
        "meta_ephemeris_type": 0,
        "meta_classification_type": "U",
        "meta_norad_cat_id": 37326,
        "meta_element_set_no": 999,
        "meta_rev_at_epoch": 85448,
        "meta_bstar": 0.00074359922,
        "meta_mean_motion_dot": 3.743e-05,
        "meta_mean_motion_ddot": 0,
        "tle_line1": "1 37326U 93036BKS 25344.33039562  .00003743  00000+0  74360-3 0  9990",
        "tle_line2": "2 37326  74.0262 339.3048 0054814 109.0704 251.6410 14.61555954854480"
      },
      "geometry": {
        "type": "Point",
        "coordinates": [
          63.439472082565565,
          73.98152994606832
        ]
      }
    },
    {
      "type": "Feature",
      "properties": {
        "norad_id": 37330,
        "name": "COSMOS 2251 DEB",
        "group": "cosmos-2251-debris",
        "lat": 73.18638709764129,
        "lon": 46.17948178384663,
        "alt_km": 661.9713048650783,
        "timestamp": "2025-12-11T08:58:27.523087+00:00",
        "meta_object_name": "COSMOS 2251 DEB",
        "meta_object_id": "1993-036BKW",
        "meta_epoch": "2025-12-11T05:14:55.752576",
        "meta_mean_motion": 14.59532151,
        "meta_eccentricity": 0.0057062,
        "meta_inclination": 74.0184,
        "meta_ra_of_asc_node": 297.9909,
        "meta_arg_of_pericenter": 146.9562,
        "meta_mean_anomaly": 213.519,
        "meta_ephemeris_type": 0,
        "meta_classification_type": "U",
        "meta_norad_cat_id": 37330,
        "meta_element_set_no": 999,
        "meta_rev_at_epoch": 86346,
        "meta_bstar": 0.00048234,
        "meta_mean_motion_dot": 2.314e-05,
        "meta_mean_motion_ddot": 0,
        "tle_line1": "1 37330U 93036BKW 25345.21870084  .00002314  00000+0  48234-3 0  9999",
        "tle_line2": "2 37330  74.0184 297.9909 0057062 146.9562 213.5190 14.59532151863464"
      },
      "geometry": {
        "type": "Point",
        "coordinates": [
          46.17948178384663,
          73.18638709764129
        ]
      }
    },
    {
      "type": "Feature",
      "properties": {
        "norad_id": 37331,
        "name": "COSMOS 2251 DEB",
        "group": "cosmos-2251-debris",
        "lat": -21.0647480653152,
        "lon": 64.05583974554814,
        "alt_km": 791.2317331522827,
        "timestamp": "2025-12-11T08:58:27.523107+00:00",
        "meta_object_name": "COSMOS 2251 DEB",
        "meta_object_id": "1993-036BKX",
        "meta_epoch": "2025-12-08T12:28:40.679328",
        "meta_mean_motion": 14.35004102,
        "meta_eccentricity": 0.0054894,
        "meta_inclination": 74.0752,
        "meta_ra_of_asc_node": 75.5859,
        "meta_arg_of_pericenter": 91.1646,
        "meta_mean_anomaly": 269.5796,
        "meta_ephemeris_type": 0,
        "meta_classification_type": "U",
        "meta_norad_cat_id": 37331,
        "meta_element_set_no": 999,
        "meta_rev_at_epoch": 84699,
        "meta_bstar": 0.00094274204,
        "meta_mean_motion_dot": 2.707e-05,
        "meta_mean_motion_ddot": 0,
        "tle_line1": "1 37331U 93036BKX 25342.51991527  .00002707  00000+0  94274-3 0  9997",
        "tle_line2": "2 37331  74.0752  75.5859 0054894  91.1646 269.5796 14.35004102846990"
      },
      "geometry": {
        "type": "Point",
        "coordinates": [
          64.05583974554814,
          -21.0647480653152
        ]
      }
    },
    {
      "type": "Feature",
      "properties": {
        "norad_id": 37336,
        "name": "COSMOS 2251 DEB",
        "group": "cosmos-2251-debris",
        "lat": -28.82624262241657,
        "lon": -35.35354832080507,
        "alt_km": 785.0718020968598,
        "timestamp": "2025-12-11T08:58:27.523119+00:00",
        "meta_object_name": "COSMOS 2251 DEB",
        "meta_object_id": "1993-036BLC",
        "meta_epoch": "2025-12-09T16:53:45.179232",
        "meta_mean_motion": 14.32756828,
        "meta_eccentricity": 0.00287573,
        "meta_inclination": 74.0407,
        "meta_ra_of_asc_node": 336.7551,
        "meta_arg_of_pericenter": 55.3677,
        "meta_mean_anomaly": 305.0179,
        "meta_ephemeris_type": 0,
        "meta_classification_type": "U",
        "meta_norad_cat_id": 37336,
        "meta_element_set_no": 999,
        "meta_rev_at_epoch": 65076,
        "meta_bstar": 0.00013225409,
        "meta_mean_motion_dot": 3.36e-06,
        "meta_mean_motion_ddot": 0,
        "tle_line1": "1 37336U 93036BLC 25343.70399513  .00000336  00000+0  13225-3 0  9994",
        "tle_line2": "2 37336  74.0407 336.7551 0028757  55.3677 305.0179 14.32756828650763"
      },
      "geometry": {
        "type": "Point",
        "coordinates": [
          -35.35354832080507,
          -28.82624262241657
        ]
      }
    },
    {
      "type": "Feature",
      "properties": {
        "norad_id": 37340,
        "name": "COSMOS 2251 DEB",
        "group": "cosmos-2251-debris",
        "lat": 9.373907653231546,
        "lon": 96.95747584010509,
        "alt_km": 781.4380489962532,
        "timestamp": "2025-12-11T08:58:27.523129+00:00",
        "meta_object_name": "COSMOS 2251 DEB",
        "meta_object_id": "1993-036BLG",
        "meta_epoch": "2025-12-10T05:27:04.576320",
        "meta_mean_motion": 14.36918375,
        "meta_eccentricity": 0.001764,
        "meta_inclination": 74.0254,
        "meta_ra_of_asc_node": 281.7768,
        "meta_arg_of_pericenter": 17.3878,
        "meta_mean_anomaly": 342.7875,
        "meta_ephemeris_type": 0,
        "meta_classification_type": "U",
        "meta_norad_cat_id": 37340,
        "meta_element_set_no": 999,
        "meta_rev_at_epoch": 84031,
        "meta_bstar": 0.00034258,
        "meta_mean_motion_dot": 9.89e-06,
        "meta_mean_motion_ddot": 0,
        "tle_line1": "1 37340U 93036BLG 25344.22713630  .00000989  00000+0  34258-3 0  9990",
        "tle_line2": "2 37340  74.0254 281.7768 0017640  17.3878 342.7875 14.36918375840311"
      },
      "geometry": {
        "type": "Point",
        "coordinates": [
          96.95747584010509,
          9.373907653231546
        ]
      }
    },
    {
      "type": "Feature",
      "properties": {
        "norad_id": 37483,
        "name": "COSMOS 2251 DEB",
        "group": "cosmos-2251-debris",
        "lat": -63.90006318609751,
        "lon": 1.8112968994967704,
        "alt_km": 768.6225803550406,
        "timestamp": "2025-12-11T08:58:27.523140+00:00",
        "meta_object_name": "COSMOS 2251 DEB",
        "meta_object_id": "1993-036BLL",
        "meta_epoch": "2025-12-09T17:33:52.143264",
        "meta_mean_motion": 14.43549902,
        "meta_eccentricity": 0.00929617,
        "meta_inclination": 73.9727,
        "meta_ra_of_asc_node": 148.9468,
        "meta_arg_of_pericenter": 356.1236,
        "meta_mean_anomaly": 3.9188,
        "meta_ephemeris_type": 0,
        "meta_classification_type": "U",
        "meta_norad_cat_id": 37483,
        "meta_element_set_no": 999,
        "meta_rev_at_epoch": 65236,
        "meta_bstar": 0.0003462404,
        "meta_mean_motion_dot": 1.207e-05,
        "meta_mean_motion_ddot": 0,
        "tle_line1": "1 37483U 93036BLL 25343.73185351  .00001207  00000+0  34624-3 0  9997",
        "tle_line2": "2 37483  73.9727 148.9468 0092961 356.1236   3.9188 14.43549902652367"
      },
      "geometry": {
        "type": "Point",
        "coordinates": [
          1.8112968994967704,
          -63.90006318609751
        ]
      }
    }
  ]
}